[Satellite]
VERSION=1.1
NAME=IRIDIUM 163
NICKNAME=IRIDIUM 163
TLE1=1 43575U 18061G   20158.03906667  .00000070  00000-0  17878-4 0  9995
TLE2=2 43575  86.3984 256.9643 0001902 109.3944 250.7458 14.34217696 97742
STATUS=0
